[{"OBJECT_NAME":"STARLINK-32325","OBJECT_ID":"2024-187Q","EPOCH":"2026-03-09T23:07:32.792736","MEAN_MOTION":15.30182683,"ECCENTRICITY":0.00012693,"INCLINATION":53.1623,"RA_OF_ASC_NODE":63.8974,"ARG_OF_PERICENTER":106.8064,"MEAN_ANOMALY":253.3076,"EPHEMERIS_TYPE":0,"CLASSIFICATION_TYPE":"U","NORAD_CAT_ID":61588,"ELEMENT_SET_NO":999,"REV_AT_EPOCH":7912,"BSTAR":7.785353e-6,"MEAN_MOTION_DOT":-1.29e-6,"MEAN_MOTION_DDOT":0},{"OBJECT_NAME":"COSMOS 1869","OBJECT_ID":"1987-062A","EPOCH":"2026-03-09T20:30:29.271744","MEAN_MOTION":15.35392408,"ECCENTRICITY":0.00185772,"INCLINATION":82.5127,"RA_OF_ASC_NODE":201.6716,"ARG_OF_PERICENTER":61.4986,"MEAN_ANOMALY":298.8125,"EPHEMERIS_TYPE":0,"CLASSIFICATION_TYPE":"U","NORAD_CAT_ID":18214,"ELEMENT_SET_NO":999,"REV_AT_EPOCH":8931,"BSTAR":0.00042037944,"MEAN_MOTION_DOT":0.00014573,"MEAN_MOTION_DDOT":0}]
